{
  "type": "FeatureCollection",
  "features": [
    {
      "type": "Feature",
      "properties": {
        "norad_id": 2807,
        "name": "OPS 7218 (TRANSIT 16)",
        "group": "nnss",
        "lat": -44.38163554104314,
        "lon": 174.11382313989182,
        "alt_km": 1086.527295039985,
        "timestamp": "2025-12-19T10:50:01.469523+00:00",
        "meta_object_name": "OPS 7218 (TRANSIT 16)",
        "meta_object_id": "1967-048A",
        "meta_epoch": "2025-12-18T23:12:02.625984",
        "meta_mean_motion": 13.50723543,
        "meta_eccentricity": 0.00221284,
        "meta_inclination": 89.6731,
        "meta_ra_of_asc_node": 353.8097,
        "meta_arg_of_pericenter": 97.434,
        "meta_mean_anomaly": 291.1163,
        "meta_ephemeris_type": 0,
        "meta_classification_type": "U",
        "meta_norad_cat_id": 2807,
        "meta_element_set_no": 999,
        "meta_rev_at_epoch": 88360,
        "meta_bstar": 0.00016722579,
        "meta_mean_motion_dot": 1.18e-06,
        "meta_mean_motion_ddot": 0,
        "tle_line1": "1 02807U 67048A   25352.96669706  .00000118  00000+0  16723-3 0  9999",
        "tle_line2": "2 02807  89.6731 353.8097 0022128  97.4340 291.1163 13.50723543883601"
      },
      "geometry": {
        "type": "Point",
        "coordinates": [
          174.11382313989182,
          -44.38163554104314
        ]
      }
    },
    {
      "type": "Feature",
      "properties": {
        "norad_id": 2965,
        "name": "OPS 4947 (TRANSIT 17)",
        "group": "nnss",
        "lat": -5.271927390016801,
        "lon": 23.854549471097457,
        "alt_km": 1089.7825366283287,
        "timestamp": "2025-12-19T10:50:01.469545+00:00",
        "meta_object_name": "OPS 4947 (TRANSIT 17)",
        "meta_object_id": "1967-092A",
        "meta_epoch": "2025-12-18T15:55:18.517728",
        "meta_mean_motion": 13.53455041,
        "meta_eccentricity": 0.00465781,
        "meta_inclination": 89.249,
        "meta_ra_of_asc_node": 23.9839,
        "meta_arg_of_pericenter": 216.8425,
        "meta_mean_anomaly": 260.4807,
        "meta_ephemeris_type": 0,
        "meta_classification_type": "U",
        "meta_norad_cat_id": 2965,
        "meta_element_set_no": 999,
        "meta_rev_at_epoch": 87177,
        "meta_bstar": 0.00020504279,
        "meta_mean_motion_dot": 1.5e-06,
        "meta_mean_motion_ddot": 0,
        "tle_line1": "1 02965U 67092A   25352.66340877  .00000150  00000+0  20504-3 0  9993",
        "tle_line2": "2 02965  89.2490  23.9839 0046578 216.8425 260.4807 13.53455041871776"
      },
      "geometry": {
        "type": "Point",
        "coordinates": [
          23.854549471097457,
          -5.271927390016801
        ]
      }
    },
    {
      "type": "Feature",
      "properties": {
        "norad_id": 3133,
        "name": "OPS 7034 (TRANSIT 18)",
        "group": "nnss",
        "lat": 82.53878698349956,
        "lon": 93.87413214817455,
        "alt_km": 1024.9859706280495,
        "timestamp": "2025-12-19T10:50:01.469559+00:00",
        "meta_object_name": "OPS 7034 (TRANSIT 18)",
        "meta_object_id": "1968-012A",
        "meta_epoch": "2025-12-18T20:27:56.179584",
        "meta_mean_motion": 13.51567077,
        "meta_eccentricity": 0.00744457,
        "meta_inclination": 90.0283,
        "meta_ra_of_asc_node": 273.6562,
        "meta_arg_of_pericenter": 151.4942,
        "meta_mean_anomaly": 275.4365,
        "meta_ephemeris_type": 0,
        "meta_classification_type": "U",
        "meta_norad_cat_id": 3133,
        "meta_element_set_no": 999,
        "meta_rev_at_epoch": 57001,
        "meta_bstar": 0.00014195099,
        "meta_mean_motion_dot": 1.04e-06,
        "meta_mean_motion_ddot": 0,
        "tle_line1": "1 03133U 68012A   25352.85273356  .00000104  00000+0  14195-3 0  9990",
        "tle_line2": "2 03133  90.0283 273.6562 0074445 151.4942 275.4365 13.51567077570012"
      },
      "geometry": {
        "type": "Point",
        "coordinates": [
          93.87413214817455,
          82.53878698349956
        ]
      }
    },
    {
      "type": "Feature",
      "properties": {
        "norad_id": 4507,
        "name": "NNSS 19 (TRANSIT 19)",
        "group": "nnss",
        "lat": 64.44694764466603,
        "lon": -125.47228464290777,
        "alt_km": 1171.31202565069,
        "timestamp": "2025-12-19T10:50:01.469571+00:00",
        "meta_object_name": "NNSS 19 (TRANSIT 19)",
        "meta_object_id": "1970-067A",
        "meta_epoch": "2025-12-18T16:44:24.349056",
        "meta_mean_motion": 13.51316268,
        "meta_eccentricity": 0.01702834,
        "meta_inclination": 90.0051,
        "meta_ra_of_asc_node": 234.538,
        "meta_arg_of_pericenter": 275.9496,
        "meta_mean_anomaly": 82.2271,
        "meta_ephemeris_type": 0,
        "meta_classification_type": "U",
        "meta_norad_cat_id": 4507,
        "meta_element_set_no": 999,
        "meta_rev_at_epoch": 72302,
        "meta_bstar": 0.00012940262,
        "meta_mean_motion_dot": 9.9e-07,
        "meta_mean_motion_ddot": 0,
        "tle_line1": "1 04507U 70067A   25352.69750404  .00000099  00000+0  12940-3 0  9994",
        "tle_line2": "2 04507  90.0051 234.5380 0170283 275.9496  82.2271 13.51316268723023"
      },
      "geometry": {
        "type": "Point",
        "coordinates": [
          -125.47228464290777,
          64.44694764466603
        ]
      }
    },
    {
      "type": "Feature",
      "properties": {
        "norad_id": 6909,
        "name": "NNSS 20 (TRANSIT 20)",
        "group": "nnss",
        "lat": -80.97165754833625,
        "lon": 75.8592386348267,
        "alt_km": 1108.1968746692128,
        "timestamp": "2025-12-19T10:50:01.469582+00:00",
        "meta_object_name": "NNSS 20 (TRANSIT 20)",
        "meta_object_id": "1973-081A",
        "meta_epoch": "2025-12-18T17:48:34.966368",
        "meta_mean_motion": 13.71437204,
        "meta_eccentricity": 0.01564871,
        "meta_inclination": 89.8562,
        "meta_ra_of_asc_node": 254.9643,
        "meta_arg_of_pericenter": 60.5426,
        "meta_mean_anomaly": 301.1248,
        "meta_ephemeris_type": 0,
        "meta_classification_type": "U",
        "meta_norad_cat_id": 6909,
        "meta_element_set_no": 999,
        "meta_rev_at_epoch": 80443,
        "meta_bstar": 0.00023051268,
        "meta_mean_motion_dot": 2.38e-06,
        "meta_mean_motion_ddot": 0,
        "tle_line1": "1 06909U 73081A   25352.74207137  .00000238  00000+0  23051-3 0  9997",
        "tle_line2": "2 06909  89.8562 254.9643 0156487  60.5426 301.1248 13.71437204804431"
      },
      "geometry": {
        "type": "Point",
        "coordinates": [
          75.8592386348267,
          -80.97165754833625
        ]
      }
    },
    {
      "type": "Feature",
      "properties": {
        "norad_id": 10457,
        "name": "TRANSAT",
        "group": "nnss",
        "lat": 11.08479608869486,
        "lon": 78.42839410471639,
        "alt_km": 1095.6216603516395,
        "timestamp": "2025-12-19T10:50:01.469593+00:00",
        "meta_object_name": "TRANSAT",
        "meta_object_id": "1977-106A",
        "meta_epoch": "2025-12-18T19:19:02.299008",
        "meta_mean_motion": 13.48944476,
        "meta_eccentricity": 0.00259704,
        "meta_inclination": 89.6481,
        "meta_ra_of_asc_node": 78.3823,
        "meta_arg_of_pericenter": 172.0825,
        "meta_mean_anomaly": 301.4631,
        "meta_ephemeris_type": 0,
        "meta_classification_type": "U",
        "meta_norad_cat_id": 10457,
        "meta_element_set_no": 999,
        "meta_rev_at_epoch": 36825,
        "meta_bstar": 9.7958872e-05,
        "meta_mean_motion_dot": 7.2e-07,
        "meta_mean_motion_ddot": 0,
        "tle_line1": "1 10457U 77106A   25352.80488772  .00000072  00000+0  97959-4 0  9990",
        "tle_line2": "2 10457  89.6481  78.3823 0025970 172.0825 301.4631 13.48944476368256"
      },
      "geometry": {
        "type": "Point",
        "coordinates": [
          78.42839410471639,
          11.08479608869486
        ]
      }
    },
    {
      "type": "Feature",
      "properties": {
        "norad_id": 12458,
        "name": "NOVA 1",
        "group": "nnss",
        "lat": 13.2711148375524,
        "lon": 91.32518497638242,
        "alt_km": 1169.9344923604813,
        "timestamp": "2025-12-19T10:50:01.469603+00:00",
        "meta_object_name": "NOVA 1",
        "meta_object_id": "1981-044A",
        "meta_epoch": "2025-12-18T20:50:47.643072",
        "meta_mean_motion": 13.2327898,
        "meta_eccentricity": 0.00158922,
        "meta_inclination": 89.8528,
        "meta_ra_of_asc_node": 91.2987,
        "meta_arg_of_pericenter": 88.9627,
        "meta_mean_anomaly": 29.8592,
        "meta_ephemeris_type": 0,
        "meta_classification_type": "U",
        "meta_norad_cat_id": 12458,
        "meta_element_set_no": 999,
        "meta_rev_at_epoch": 15267,
        "meta_bstar": 0.00011365561,
        "meta_mean_motion_dot": 5.7e-07,
        "meta_mean_motion_ddot": 0,
        "tle_line1": "1 12458U 81044A   25352.86860698  .00000057  00000+0  11366-3 0  9996",
        "tle_line2": "2 12458  89.8528  91.2987 0015892  88.9627  29.8592 13.23278980152672"
      },
      "geometry": {
        "type": "Point",
        "coordinates": [
          91.32518497638242,
          13.2711148375524
        ]
      }
    }
  ]
}